OBJECT_NAME,OBJECT_ID,EPOCH,MEAN_MOTION,ECCENTRICITY,INCLINATION,RA_OF_ASC_NODE,ARG_OF_PERICENTER,MEAN_ANOMALY,EPHEMERIS_TYPE,CLASSIFICATION_TYPE,NORAD_CAT_ID,ELEMENT_SET_NO,REV_AT_EPOCH,BSTAR,MEAN_MOTION_DOT,MEAN_MOTION_DDOT
TRITON-1,2013-066M,2026-06-14T06:09:38.899872,14.81699787,.00883738,97.8257,75.1306,243.5840,115.6284,0,U,39427,999,67365,.30160008E-3,.2484E-4,0
GOMX-1,2013-066Q,2026-06-14T06:11:26.237184,14.69450522,.01301915,97.6485,5.9059,86.8493,274.7601,0,U,39430,999,66948,.30066717E-3,.1978E-4,0
CUBEBUG-2 (LO-74),2013-066AA,2026-06-14T02:46:43.227840,14.93738647,.00586137,97.8903,114.0809,38.9303,321.6115,0,U,39440,999,67653,.41940544E-3,.4533E-4,0
NEE-02 KRYSAOR,2013-066AB,2026-06-14T02:42:45.558720,14.86606396,.0067709,97.8892,104.3496,80.0536,280.8313,0,U,39441,999,67574,.27927864E-3,.2524E-4,0
FUNCUBE-1 (AO-73),2013-066AE,2026-06-13T20:59:27.159360,15.09452478,.00353773,97.8267,136.2511,212.6416,147.2626,0,U,39444,999,67916,.45803274E-3,.7372E-4,0
UWE-3,2013-066AG,2026-06-13T19:21:45.292608,14.96999955,.00481152,97.8688,120.8577,332.4032,27.4636,0,U,39446,999,67707,.38954975E-3,.4526E-4,0
SMDC ONE 2.4,2013-072H,2026-06-14T05:43:17.817024,15.18132190,.01448899,120.4930,340.6994,15.8830,344.6725,0,U,39469,999,11738,.37356576E-3,.9724E-4,0
COSMOS 2488 (RODNIK-S 7),2013-076A,2026-06-14T07:13:23.287008,12.42905903,.00208254,82.4826,170.4930,101.2476,259.0946,0,U,39483,999,56553,.41018374E-3,.67E-6,0
COSMOS 2489 (RODNIK-S 8),2013-076B,2026-06-14T06:37:35.369184,12.42879445,.0022655,82.4864,171.8862,101.2582,259.1045,0,U,39484,999,56558,.11584254E-3,.26E-6,0
COSMOS 2490 (RODNIK-S 9),2013-076C,2026-06-14T07:53:01.218048,12.42878309,.002268,82.4810,169.9223,116.0550,244.2868,0,U,39485,999,56552,.48573822E-3,.77E-6,0
KAZEOSAT 1,2014-024A,2026-06-14T07:34:35.853600,14.42078645,.00013819,98.3212,237.8341,74.4269,285.7073,0,U,39731,999,63814,.28927468E-4,.52E-6,0
COSMOS 2496 (RODNIK-S 10),2014-028A,2026-06-14T06:51:51.803136,12.42878592,.00213162,82.4444,110.5479,84.8158,275.5354,0,U,39761,999,54715,.23000974E-4,.13E-6,0
COSMOS 2497 (RODNIK-S 11),2014-028B,2026-06-14T06:16:19.274880,12.42894168,.00218847,82.4491,112.2519,80.1624,280.1925,0,U,39762,999,54715,-.8442344E-5,.9E-7,0
COSMOS 2498 (RODNIK-S 12),2014-028C,2026-06-14T07:40:15.967200,12.42980145,.0022606,82.4452,110.7038,79.6503,280.7123,0,U,39763,999,54719,-.91345432E-4,-.3E-7,0
HODOYOSHI-4,2014-033B,2026-06-14T06:39:12.301344,14.88124694,.00226245,97.5450,350.2405,318.6640,41.2865,0,U,40011,999,64837,.2013307E-3,.1809E-4,0
UNISAT-6,2014-033C,2026-06-14T07:25:35.218560,14.88233086,.00463214,97.7871,318.0720,78.5448,282.0966,0,U,40012,999,64573,.32787917E-3,.3031E-4,0
DEIMOS-2,2014-033D,2026-06-14T05:39:20.672352,14.93717057,.00017007,97.5841,39.8288,48.9529,311.1839,0,U,40013,999,63728,.77036441E-4,.761E-5,0
BUGSAT-1 (TITA),2014-033E,2026-06-14T06:19:05.143008,15.15560280,.0027809,98.0432,257.6401,188.5499,171.5262,0,U,40014,999,65539,.39237227E-3,.7441E-4,0
SAUDISAT 4,2014-033G,2026-06-14T06:40:54.753600,14.79541219,.00462222,97.7578,311.5137,83.1725,277.4743,0,U,40016,999,64564,.88115162E-4,.619E-5,0
APRIZESAT 9,2014-033J,2026-06-14T06:56:09.947328,14.74210939,.00654755,97.9056,298.5585,208.5626,151.1990,0,U,40018,999,64313,.96608727E-4,.607E-5,0
BRITE-CA1 (TORONTO),2014-033L,2026-06-14T07:40:48.178848,14.72673070,.00772746,97.9735,294.3008,286.3637,72.9085,0,U,40020,999,64179,.10219606E-3,.628E-5,0
