TRITON-1                
1 39427U 13066M   26165.25670023  .00002484  00000+0  30160-3 0  9996
2 39427  97.8257  75.1306 0088373 243.5840 115.6284 14.81699787673656
GOMX-1                  
1 39430U 13066Q   26165.25794256  .00001978  00000+0  30067-3 0  9998
2 39430  97.6485   5.9059 0130191  86.8493 274.7601 14.69450522669489
CUBEBUG-2 (LO-74)       
1 39440U 13066AA  26165.11577810  .00004533  00000+0  41941-3 0  9992
2 39440  97.8903 114.0809 0058613  38.9303 321.6115 14.93738647676538
NEE-02 KRYSAOR          
1 39441U 13066AB  26165.11302730  .00002524  00000+0  27928-3 0  9997
2 39441  97.8892 104.3496 0067709  80.0536 280.8313 14.86606396675747
FUNCUBE-1 (AO-73)       
1 39444U 13066AE  26164.87461990  .00007372  00000+0  45803-3 0  9994
2 39444  97.8267 136.2511 0035377 212.6416 147.2626 15.09452478679163
UWE-3                   
1 39446U 13066AG  26164.80677422  .00004526  00000+0  38955-3 0  9996
2 39446  97.8688 120.8577 0048115 332.4032  27.4636 14.96999955677071
SMDC ONE 2.4            
1 39469U 13072H   26165.23840066  .00009724  00000+0  37357-3 0  9992
2 39469 120.4930 340.6994 0144889  15.8830 344.6725 15.18132190117388
COSMOS 2488 (RODNIK-S 7)
1 39483U 13076A   26165.30096397  .00000067  00000+0  41018-3 0  9990
2 39483  82.4826 170.4930 0020825 101.2476 259.0946 12.42905903565535
COSMOS 2489 (RODNIK-S 8)
1 39484U 13076B   26165.27610381  .00000026  00000+0  11584-3 0  9992
2 39484  82.4864 171.8862 0022655 101.2582 259.1045 12.42879445565585
COSMOS 2490 (RODNIK-S 9)
1 39485U 13076C   26165.32848632  .00000077  00000+0  48574-3 0  9996
2 39485  82.4810 169.9223 0022680 116.0550 244.2868 12.42878309565523
KAZEOSAT 1              
1 39731U 14024A   26165.31569275  .00000052  00000+0  28927-4 0  9990
2 39731  98.3212 237.8341 0001381  74.4269 285.7073 14.42078645638148
COSMOS 2496 (RODNIK-S *)
1 39761U 14028A   26165.28601624  .00000013  00000+0  23001-4 0  9993
2 39761  82.4444 110.5479 0021316  84.8158 275.5354 12.42878592547159
COSMOS 2497 (RODNIK-S *)
1 39762U 14028B   26165.26133420  .00000009  00000+0 -84423-5 0  9998
2 39762  82.4491 112.2519 0021884  80.1624 280.1925 12.42894168547156
COSMOS 2498 (RODNIK-S *)
1 39763U 14028C   26165.31962925 -.00000003  00000+0 -91345-4 0  9990
2 39763  82.4452 110.7038 0022606  79.6503 280.7123 12.42980145547196
HODOYOSHI-4             
1 40011U 14033B   26165.27722571  .00001809  00000+0  20133-3 0  9999
2 40011  97.5450 350.2405 0022624 318.6640  41.2865 14.88124694648372
UNISAT-6                
1 40012U 14033C   26165.30943540  .00003031  00000+0  32788-3 0  9993
2 40012  97.7871 318.0720 0046321  78.5448 282.0966 14.88233086645732
DEIMOS-2                
1 40013U 14033D   26165.23565593  .00000761  00000+0  77036-4 0  9997
2 40013  97.5841  39.8288 0001700  48.9529 311.1839 14.93717057637283
BUGSAT-1 (TITA)         
1 40014U 14033E   26165.26325397  .00007441  00000+0  39237-3 0  9999
2 40014  98.0432 257.6401 0027809 188.5499 171.5262 15.15560280655397
SAUDISAT 4              
1 40016U 14033G   26165.27841150  .00000619  00000+0  88115-4 0  9992
2 40016  97.7578 311.5137 0046222  83.1725 277.4743 14.79541219645641
APRIZESAT 9             
1 40018U 14033J   26165.28900402  .00000607  00000+0  96609-4 0  9995
2 40018  97.9056 298.5585 0065475 208.5626 151.1990 14.74210939643132
BRITE-CA1 (TORONTO)     
1 40020U 14033L   26165.32000207  .00000628  00000+0  10220-3 0  9994
2 40020  97.9735 294.3008 0077274 286.3637  72.9085 14.72673070641791
